{
    "links": {
        "self": "http://www.neowsapp.com/rest/v1/neo/3771793?api_key=iIulBulltgU6a56xZRHN4H3l9WmuAYTsLGpBGhQ2"
    },
    "id": "3771793",
    "neo_reference_id": "3771793",
    "name": "(2017 FL63)",
    "designation": "2017 FL63",
    "nasa_jpl_url": "http://ssd.jpl.nasa.gov/sbdb.cgi?sstr=3771793",
    "absolute_magnitude_h": 26.0,
    "estimated_diameter": {
        "kilometers": {
            "estimated_diameter_min": 0.0167708462,
            "estimated_diameter_max": 0.0375007522
        },
        "meters": {
            "estimated_diameter_min": 16.7708462163,
            "estimated_diameter_max": 37.5007521798
        },
        "miles": {
            "estimated_diameter_min": 0.0104209175,
            "estimated_diameter_max": 0.0233018799
        },
        "feet": {
            "estimated_diameter_min": 55.0224631002,
            "estimated_diameter_max": 123.0339677816
        }
    },
    "is_potentially_hazardous_asteroid": false,
    "close_approach_data": [
        {
            "close_approach_date": "2017-03-26",
            "close_approach_date_full": "2017-Mar-26 23:11",
            "epoch_date_close_approach": 1490569860000,
            "relative_velocity": {
                "kilometers_per_second": "17.4269694595",
                "kilometers_per_hour": "62737.0900541687",
                "miles_per_hour": "38982.3879839361"
            },
            "miss_distance": {
                "astronomical": "0.0107731035",
                "lunar": "4.1907372615",
                "kilometers": "1611633.336889545",
                "miles": "1001422.518963921"
            },
            "orbiting_body": "Earth"
        },
        {
            "close_approach_date": "2017-05-04",
            "close_approach_date_full": "2017-May-04 13:30",
            "epoch_date_close_approach": 1493904600000,
            "relative_velocity": {
                "kilometers_per_second": "10.3480365741",
                "kilometers_per_hour": "37252.9316666761",
                "miles_per_hour": "23147.5230125522"
            },
            "miss_distance": {
                "astronomical": "0.081066319",
                "lunar": "31.534798091",
                "kilometers": "12127348.65114053",
                "miles": "7535585.022098114"
            },
            "orbiting_body": "Venus"
        },
        {
            "close_approach_date": "2071-12-17",
            "close_approach_date_full": "2071-Dec-17 20:42",
            "epoch_date_close_approach": 3217610520000,
            "relative_velocity": {
                "kilometers_per_second": "8.0567689448",
                "kilometers_per_hour": "29004.3682013626",
                "miles_per_hour": "18022.1864526745"
            },
            "miss_distance": {
                "astronomical": "0.9802994695",
                "lunar": "381.3364936355",
                "kilometers": "146650712.599329965",
                "miles": "91124527.308744917"
            },
            "orbiting_body": "Juptr"
        },
        {
            "close_approach_date": "2131-08-13",
            "close_approach_date_full": "2131-Aug-13 15:26",
            "epoch_date_close_approach": 5100074760000,
            "relative_velocity": {
                "kilometers_per_second": "8.2382222768",
                "kilometers_per_hour": "29657.6001964092",
                "miles_per_hour": "18428.0794109299"
            },
            "miss_distance": {
                "astronomical": "0.998779001",
                "lunar": "388.525031389",
                "kilometers": "149415211.15032787",
                "miles": "92842307.053829806"
            },
            "orbiting_body": "Juptr"
        },
        {
            "close_approach_date": "2143-05-12",
            "close_approach_date_full": "2143-May-12 05:01",
            "epoch_date_close_approach": 5470693260000,
            "relative_velocity": {
                "kilometers_per_second": "11.1189170628",
                "kilometers_per_hour": "40028.1014259684",
                "miles_per_hour": "24871.905577708"
            },
            "miss_distance": {
                "astronomical": "1.8443531168",
                "lunar": "717.4533624352",
                "kilometers": "275911297.801141216",
                "miles": "171443330.5207561408"
            },
            "orbiting_body": "Juptr"
        }
    ],
    "orbital_data": {
        "orbit_id": "5",
        "orbit_determination_date": "2018-02-10 07:08:48",
        "first_observation_date": "2017-03-20",
        "last_observation_date": "2017-03-25",
        "data_arc_in_days": 5,
        "observations_used": 59,
        "orbit_uncertainty": "7",
        "minimum_orbit_intersection": ".00618072",
        "jupiter_tisserand_invariant": "2.934",
        "epoch_osculation": "2459000.5",
        "eccentricity": ".7123483199323533",
        "semi_major_axis": "2.698884384477422",
        "inclination": "5.547839278360247",
        "ascending_node_longitude": "189.2298429838834",
        "orbital_period": "1619.477235598148",
        "perihelion_distance": ".776338627503267",
        "perihelion_argument": "58.45199578501797",
        "aphelion_distance": "4.621430141451576",
        "perihelion_time": "2459498.345789409788",
        "mean_anomaly": "249.3318904101004",
        "mean_motion": ".2222939551645104",
        "equinox": "J2000",
        "orbit_class": {
            "orbit_class_type": "APO",
            "orbit_class_description": "Near-Earth asteroid orbits which cross the Earth’s orbit similar to that of 1862 Apollo",
            "orbit_class_range": "a (semi-major axis) > 1.0 AU; q (perihelion) < 1.017 AU"
        }
    },
    "is_sentry_object": false
}